QIANFAN-234             
1 69863U 26155R   26203.87010880  .00000074  00000+0  25613-4 0  9997
2 69863  89.0063  60.0721 0030423 195.6343 164.3913 14.24414381  2471
QIANFAN-235             
1 69864U 26155S   26203.86731299  .00000232  00000+0  89278-4 0  9994
2 69864  89.0062  60.0715 0031078 197.4628 162.5500 14.26766891  2477
QIANFAN-236             
1 69865U 26155T   26203.87556435  .00000049  00000+0  15844-4 0  9997
2 69865  89.0063  60.0729 0029576 196.7293 163.2926 14.21103697  2478
QIANFAN-237             
1 69866U 26155U   26203.87022804  .00000074  00000+0  25535-4 0  9992
2 69866  89.0061  60.0719 0030733 196.9009 163.1163 14.24432481  2460
QIANFAN-238             
1 69867U 26155V   26203.86713991  .00000222  00000+0  85163-4 0  9994
2 69867  89.0062  60.0715 0031111 197.1930 162.8213 14.26739750  2479
CZ-8A R/B               
1 69868U 26155W   26203.88770638  .00000387  00000+0  91870-4 0  9992
2 69868  88.9653  59.9538 0106605  77.8113 283.5009 14.48274329  2500
CAS500-4                
1 69869U 26156A   26203.84445363 -.00000137  00000+0 -63426-4 0  9995
2 69869  98.9940 103.7922 0011933 178.4532 181.6671 13.99858585  2171
TRANSPORTER-17 OBJECT B 
1 69870U 26156B   26203.90483833  .00002037  00000+0  20809-3 0  9994
2 69870  97.7511 104.0970 0008431  94.8120 265.4062 14.91661507  2325
PELICAN-11              
1 69871U 26156C   26203.90453648  .00000325  00000+0  37870-4 0  9991
2 69871  97.7549 104.1073 0007576  98.1471 262.0607 14.91674219  2138
TRANSPORTER-17 OBJECT D 
1 69872U 26156D   26203.84742518  .00000770  00000+0  84006-4 0  9999
2 69872  97.7515 104.0203 0005042  68.0668 292.1086 14.90715755  2311
TRANSPORTER-17 OBJECT E 
1 69873U 26156E   26203.90551254  .00000706  00000+0  75905-4 0  9999
2 69873  97.7551 104.1060 0007416  95.3986 264.8079 14.91582239  2326
TRANSPORTER-17 OBJECT F 
1 69874U 26156F   26203.91307196  .00001453  00000+0  15307-3 0  9994
2 69874  97.7520 104.0892 0004719  81.3301 278.8451 14.90866722  2324
TRANSPORTER-17 OBJECT G 
1 69875U 26156G   26203.91255779  .00001117  00000+0  11887-3 0  9990
2 69875  97.7506 104.0875 0005151  78.3723 281.8074 14.90912449  2328
TRANSPORTER-17 OBJECT H 
1 69876U 26156H   26203.56678396  .00000246  00000+0  29817-4 0  9991
2 69876  97.7231 103.7616 0008596 103.7848 256.4328 14.91891827  2271
TRANSPORTER-17 OBJECT J 
1 69877U 26156J   26203.90811672  .00002976  00000+0  30380-3 0  9994
2 69877  97.7543 104.1009 0006631  90.5811 269.6167 14.91354334  2320
TRANSPORTER-17 OBJECT K 
1 69878U 26156K   26203.90408767  .00000648  00000+0  69884-4 0  9998
2 69878  97.7510 104.0980 0008381  95.9708 264.2466 14.91718059  2321
TRANSPORTER-17 OBJECT L 
1 69879U 26156L   26203.90643725  .00001068  00000+0  11224-3 0  9995
2 69879  97.7548 104.1036 0007202  93.4857 266.7185 14.91497987  2324
TRANSPORTER-17 OBJECT M 
1 69880U 26156M   26203.91134625  .00001529  00000+0  16012-3 0  9994
2 69880  97.7451 104.0791 0006364  73.6344 286.5574 14.91032140  2323
TRANSPORTER-17 OBJECT N 
1 69881U 26156N   26203.91135089  .00000569  00000+0  63129-4 0  9995
2 69881  97.7487 104.0859 0005779  79.0436 281.1432 14.91023002  2320
TRANSPORTER-17 OBJECT P 
1 69882U 26156P   26203.91114572  .00003532  00000+0  36212-3 0  9995
2 69882  97.7559 104.0996 0005079  94.0759 266.1040 14.91066126  2323
TRANSPORTER-17 OBJECT Q 
1 69883U 26156Q   26203.90836662  .00000535  00000+0  59278-4 0  9994
2 69883  97.7541 104.0995 0006553  90.3253 269.8717 14.91305665  2325
YAM-17                  
1 69884U 26156R   26203.90293761  .00001148  00000+0  11924-3 0  9998
2 69884  97.7510 104.1002 0008594  98.8518 261.3674 14.91834754  2321
TRANSPORTER-17 OBJECT S 
1 69885U 26156S   26203.90693774  .00000642  00000+0  69735-4 0  9999
2 69885  97.7518 104.0965 0007434  89.7445 270.4625 14.91443997  2329
TRANSPORTER-17 OBJECT T 
1 69886U 26156T   26203.90288394  .00000741  00000+0  78915-4 0  9998
2 69886  97.7548 104.1082 0008315 101.2799 258.9355 14.91834673  2310
TRANSPORTER-17 OBJECT U 
1 69887U 26156U   26203.90317341  .00000158  00000+0  21149-4 0  9993
2 69887  97.7546 104.1075 0008169 101.1916 259.0222 14.91800076  2324
TRANSPORTER-17 OBJECT V 
1 69888U 26156V   26203.90820175  .00001523  00000+0  15829-3 0  9992
2 69888  97.7560 104.1035 0006494  91.5972 268.5991 14.91333257  2162
TRANSPORTER-17 OBJECT W 
1 69889U 26156W   26203.90705160  .00001660  00000+0  17152-3 0  9992
2 69889  97.7547 104.1026 0007138  91.8915 268.3121 14.91447480  2329
TRANSPORTER-17 OBJECT X 
1 69890U 26156X   26203.70114230  .00000550  00000+0  59961-4 0  9996
2 69890  97.7541 103.9093 0008592 102.3620 257.8561 14.91883972  2299
TRANSPORTER-17 OBJECT Y 
1 69891U 26156Y   26203.83899474  .00000638  00000+0  69222-4 0  9999
2 69891  97.7510 104.0298 0007792  91.4990 268.7122 14.91526407  2318
TRANSPORTER-17 OBJECT Z 
1 69892U 26156Z   26203.90197012  .00001166  00000+0  12065-3 0  9996
2 69892  97.7529 104.1053 0008853 100.9229 259.2986 14.91929385  2325
