OBJECT_NAME,OBJECT_ID,EPOCH,MEAN_MOTION,ECCENTRICITY,INCLINATION,RA_OF_ASC_NODE,ARG_OF_PERICENTER,MEAN_ANOMALY,EPHEMERIS_TYPE,CLASSIFICATION_TYPE,NORAD_CAT_ID,ELEMENT_SET_NO,REV_AT_EPOCH,BSTAR,MEAN_MOTION_DOT,MEAN_MOTION_DDOT
QIANFAN-234,2026-155R,2026-07-22T20:52:57.400320,14.24414381,.0030423,89.0063,60.0721,195.6343,164.3913,0,U,69863,999,247,.25612826E-4,.74E-6,0
QIANFAN-235,2026-155S,2026-07-22T20:48:55.842336,14.26766891,.00310789,89.0062,60.0715,197.4628,162.5500,0,U,69864,999,247,.89278459E-4,.232E-5,0
QIANFAN-236,2026-155T,2026-07-22T21:00:48.759840,14.21103697,.00295766,89.0063,60.0729,196.7293,163.2926,0,U,69865,999,247,.15843619E-4,.49E-6,0
QIANFAN-237,2026-155U,2026-07-22T20:53:07.702656,14.24432481,.00307335,89.0061,60.0719,196.9009,163.1163,0,U,69866,999,246,.25535174E-4,.74E-6,0
QIANFAN-238,2026-155V,2026-07-22T20:48:40.888224,14.26739750,.00311119,89.0062,60.0715,197.1930,162.8213,0,U,69867,999,247,.85162533E-4,.222E-5,0
CZ-8A R/B,2026-155W,2026-07-22T21:18:17.831232,14.48274329,.01066055,88.9653,59.9538,77.8113,283.5009,0,U,69868,999,250,.9186964E-4,.387E-5,0
CAS500-4,2026-156A,2026-07-22T20:16:00.793632,13.99858585,.00119338,98.9940,103.7922,178.4532,181.6671,0,U,69869,999,217,-.63425803E-4,-.137E-5,0
TRANSPORTER-17 OBJECT B,2026-156B,2026-07-22T21:42:58.031712,14.91661507,.00084319,97.7511,104.0970,94.8120,265.4062,0,U,69870,999,232,.20808596E-3,.2037E-4,0
PELICAN-11,2026-156C,2026-07-22T21:42:31.951872,14.91674219,.00075767,97.7549,104.1073,98.1471,262.0607,0,U,69871,999,213,.3786968E-4,.325E-5,0
TRANSPORTER-17 OBJECT D,2026-156D,2026-07-22T20:20:17.535552,14.90715755,.0005042,97.7515,104.0203,68.0668,292.1086,0,U,69872,999,231,.84006326E-4,.77E-5,0
TRANSPORTER-17 OBJECT E,2026-156E,2026-07-22T21:43:56.283456,14.91582239,.00074166,97.7551,104.1060,95.3986,264.8079,0,U,69873,999,232,.75905437E-4,.706E-5,0
TRANSPORTER-17 OBJECT F,2026-156F,2026-07-22T21:54:49.417344,14.90866722,.00047198,97.7520,104.0892,81.3301,278.8451,0,U,69874,999,232,.15307498E-3,.1453E-4,0
TRANSPORTER-17 OBJECT G,2026-156G,2026-07-22T21:54:04.993056,14.90912449,.00051516,97.7506,104.0875,78.3723,281.8074,0,U,69875,999,232,.11886732E-3,.1117E-4,0
TRANSPORTER-17 OBJECT H,2026-156H,2026-07-22T13:36:10.134144,14.91891827,.00085963,97.7231,103.7616,103.7848,256.4328,0,U,69876,999,227,.29816854E-4,.246E-5,0
TRANSPORTER-17 OBJECT J,2026-156J,2026-07-22T21:47:41.284608,14.91354334,.00066317,97.7543,104.1009,90.5811,269.6167,0,U,69877,999,232,.30380434E-3,.2976E-4,0
TRANSPORTER-17 OBJECT K,2026-156K,2026-07-22T21:41:53.174688,14.91718059,.00083819,97.7510,104.0980,95.9708,264.2466,0,U,69878,999,232,.69883899E-4,.648E-5,0
TRANSPORTER-17 OBJECT L,2026-156L,2026-07-22T21:45:16.178400,14.91497987,.00072028,97.7548,104.1036,93.4857,266.7185,0,U,69879,999,232,.11224392E-3,.1068E-4,0
TRANSPORTER-17 OBJECT M,2026-156M,2026-07-22T21:52:20.316000,14.91032140,.00063648,97.7451,104.0791,73.6344,286.5574,0,U,69880,999,232,.16011728E-3,.1529E-4,0
TRANSPORTER-17 OBJECT N,2026-156N,2026-07-22T21:52:20.716896,14.91023002,.00057791,97.7487,104.0859,79.0436,281.1432,0,U,69881,999,232,.63129181E-4,.569E-5,0
TRANSPORTER-17 OBJECT P,2026-156P,2026-07-22T21:52:02.990208,14.91066126,.00050794,97.7559,104.0996,94.0759,266.1040,0,U,69882,999,232,.36211634E-3,.3532E-4,0
TRANSPORTER-17 OBJECT Q,2026-156Q,2026-07-22T21:48:02.875968,14.91305665,.00065531,97.7541,104.0995,90.3253,269.8717,0,U,69883,999,232,.5927786E-4,.535E-5,0
YAM-17,2026-156R,2026-07-22T21:40:13.809504,14.91834754,.00085948,97.7510,104.1002,98.8518,261.3674,0,U,69884,999,232,.11923645E-3,.1148E-4,0
TRANSPORTER-17 OBJECT S,2026-156S,2026-07-22T21:45:59.420736,14.91443997,.00074348,97.7518,104.0965,89.7445,270.4625,0,U,69885,999,232,.69735033E-4,.642E-5,0
TRANSPORTER-17 OBJECT T,2026-156T,2026-07-22T21:40:09.172416,14.91834673,.00083159,97.7548,104.1082,101.2799,258.9355,0,U,69886,999,231,.78914956E-4,.741E-5,0
TRANSPORTER-17 OBJECT U,2026-156U,2026-07-22T21:40:34.182624,14.91800076,.00081695,97.7546,104.1075,101.1916,259.0222,0,U,69887,999,232,.21148643E-4,.158E-5,0
TRANSPORTER-17 OBJECT V,2026-156V,2026-07-22T21:47:48.631200,14.91333257,.00064946,97.7560,104.1035,91.5972,268.5991,0,U,69888,999,216,.1582929E-3,.1523E-4,0
TRANSPORTER-17 OBJECT W,2026-156W,2026-07-22T21:46:09.258240,14.91447480,.00071388,97.7547,104.1026,91.8915,268.3121,0,U,69889,999,232,.17151527E-3,.166E-4,0
TRANSPORTER-17 OBJECT X,2026-156X,2026-07-22T16:49:38.694720,14.91883972,.00085922,97.7541,103.9093,102.3620,257.8561,0,U,69890,999,229,.59960761E-4,.55E-5,0
TRANSPORTER-17 OBJECT Y,2026-156Y,2026-07-22T20:08:09.145536,14.91526407,.00077923,97.7510,104.0298,91.4990,268.7122,0,U,69891,999,231,.69221504E-4,.638E-5,0
TRANSPORTER-17 OBJECT Z,2026-156Z,2026-07-22T21:38:50.218368,14.91929385,.00088532,97.7529,104.1053,100.9229,259.2986,0,U,69892,999,232,.12064836E-3,.1166E-4,0
